STARLINK-36068          
1 66845U 25280AA  25362.51497720  .00109666  00000+0  17580-2 0  9999
2 66845  70.0006 155.1460 0006391 303.1513  56.9060 15.52548848  5383
STARLINK-36055          
1 66846U 25280AB  25362.50002315 -.02079429  00000+0 -46142-1 0  9993
2 66846  70.0005 155.2047 0003385 268.9808 351.5686 15.47015315  5425
STARLINK-36061          
1 66847U 25280AC  25362.50002315 -.02061250  00000+0 -44538-1 0  9994
2 66847  70.0008 155.1983 0003335 271.6097 353.8927 15.47746513  5382
STARLINK-36091          
1 66848U 25281A   25362.50002315  .00045142  00000+0  77214-3 0  9993
2 66848  43.0005  27.4973 0001201 274.6312 144.0597 15.50532768  3912
STARLINK-36102          
1 66849U 25281B   25362.50002315 -.00002367  00000+0 -34572-4 0  9999
2 66849  43.0006  27.4919 0001107 269.7378 150.8685 15.50549815  3910
STARLINK-36105          
1 66850U 25281C   25362.50002315 -.00003727  00000+0 -57807-4 0  9998
2 66850  43.0006  27.4868 0001158 273.2428 149.2811 15.50550993  3919
STARLINK-36094          
1 66851U 25281D   25362.50002315  .00014885  00000+0  25939-3 0  9994
2 66851  43.0006  27.4816 0001151 274.8977 149.5408 15.50542820  3917
STARLINK-35992          
1 66852U 25281E   25362.50002315 -.00004922  00000+0 -78224-4 0  9994
2 66852  43.0006  27.4780 0000459 274.4621 151.8965 15.50552022  3919
STARLINK-35986          
1 66853U 25281F   25362.50002315 -.00003062  00000+0 -46443-4 0  9997
2 66853  43.0006  27.4730 0000543 277.9483 150.3245 15.50551650  3914
STARLINK-36087          
1 66854U 25281G   25362.50002315 -.00007878  00000+0 -12875-3 0  9998
2 66854  43.0006  27.4674 0000499 262.1418 168.0537 15.50551051  3911
STARLINK-36090          
1 66855U 25281H   25362.50002315  .00020608  00000+0  35680-3 0  9992
2 66855  43.0007  27.4626 0000513 348.3006  83.8397 15.50528479  3799
STARLINK-36072          
1 66856U 25281J   25362.50002315 -.00252827  00000+0 -44120-2 0  9993
2 66856  43.0005  27.4583 0001577 274.1694 159.7984 15.50782068  3915
