CCSDS_OMM_VERS = 2.0
CREATION_DATE  = 
ORIGINATOR     = 

OBJECT_NAME    = STARLINK-36068
OBJECT_ID      = 2025-280AA
CENTER_NAME    = EARTH
REF_FRAME      = TEME
TIME_SYSTEM    = UTC
MEAN_ELEMENT_THEORY = SGP/SGP4

EPOCH          = 2025-12-28T12:21:34.030080
MEAN_MOTION    = 15.52548848
ECCENTRICITY   = .0006391
INCLINATION    = 70.0006
RA_OF_ASC_NODE = 155.1460
ARG_OF_PERICENTER = 303.1513
MEAN_ANOMALY   = 56.9060

EPHEMERIS_TYPE = 0
CLASSIFICATION_TYPE = U
NORAD_CAT_ID   = 66845
ELEMENT_SET_NO = 999
REV_AT_EPOCH   = 538
BSTAR          = .1758E-2
MEAN_MOTION_DOT = .109666E-2
MEAN_MOTION_DDOT = 0

CCSDS_OMM_VERS = 2.0
CREATION_DATE  = 
ORIGINATOR     = 

OBJECT_NAME    = STARLINK-36055
OBJECT_ID      = 2025-280AB
CENTER_NAME    = EARTH
REF_FRAME      = TEME
TIME_SYSTEM    = UTC
MEAN_ELEMENT_THEORY = SGP/SGP4

EPOCH          = 2025-12-28T12:00:02.000160
MEAN_MOTION    = 15.47015315
ECCENTRICITY   = .0003385
INCLINATION    = 70.0005
RA_OF_ASC_NODE = 155.2047
ARG_OF_PERICENTER = 268.9808
MEAN_ANOMALY   = 351.5686

EPHEMERIS_TYPE = 0
CLASSIFICATION_TYPE = U
NORAD_CAT_ID   = 66846
ELEMENT_SET_NO = 999
REV_AT_EPOCH   = 542
BSTAR          = -.46142E-1
MEAN_MOTION_DOT = -.2079429E-1
MEAN_MOTION_DDOT = 0

CCSDS_OMM_VERS = 2.0
CREATION_DATE  = 
ORIGINATOR     = 

OBJECT_NAME    = STARLINK-36061
OBJECT_ID      = 2025-280AC
CENTER_NAME    = EARTH
REF_FRAME      = TEME
TIME_SYSTEM    = UTC
MEAN_ELEMENT_THEORY = SGP/SGP4

EPOCH          = 2025-12-28T12:00:02.000160
MEAN_MOTION    = 15.47746513
ECCENTRICITY   = .0003335
INCLINATION    = 70.0008
RA_OF_ASC_NODE = 155.1983
ARG_OF_PERICENTER = 271.6097
MEAN_ANOMALY   = 353.8927

EPHEMERIS_TYPE = 0
CLASSIFICATION_TYPE = U
NORAD_CAT_ID   = 66847
ELEMENT_SET_NO = 999
REV_AT_EPOCH   = 538
BSTAR          = -.44538E-1
MEAN_MOTION_DOT = -.206125E-1
MEAN_MOTION_DDOT = 0

CCSDS_OMM_VERS = 2.0
CREATION_DATE  = 
ORIGINATOR     = 

OBJECT_NAME    = STARLINK-36091
OBJECT_ID      = 2025-281A
CENTER_NAME    = EARTH
REF_FRAME      = TEME
TIME_SYSTEM    = UTC
MEAN_ELEMENT_THEORY = SGP/SGP4

EPOCH          = 2025-12-28T12:00:02.000160
MEAN_MOTION    = 15.50532768
ECCENTRICITY   = .0001201
INCLINATION    = 43.0005
RA_OF_ASC_NODE = 27.4973
ARG_OF_PERICENTER = 274.6312
MEAN_ANOMALY   = 144.0597

EPHEMERIS_TYPE = 0
CLASSIFICATION_TYPE = U
NORAD_CAT_ID   = 66848
ELEMENT_SET_NO = 999
REV_AT_EPOCH   = 391
BSTAR          = .77214E-3
MEAN_MOTION_DOT = .45142E-3
MEAN_MOTION_DDOT = 0

CCSDS_OMM_VERS = 2.0
CREATION_DATE  = 
ORIGINATOR     = 

OBJECT_NAME    = STARLINK-36102
OBJECT_ID      = 2025-281B
CENTER_NAME    = EARTH
REF_FRAME      = TEME
TIME_SYSTEM    = UTC
MEAN_ELEMENT_THEORY = SGP/SGP4

EPOCH          = 2025-12-28T12:00:02.000160
MEAN_MOTION    = 15.50549815
ECCENTRICITY   = .0001107
INCLINATION    = 43.0006
RA_OF_ASC_NODE = 27.4919
ARG_OF_PERICENTER = 269.7378
MEAN_ANOMALY   = 150.8685

EPHEMERIS_TYPE = 0
CLASSIFICATION_TYPE = U
NORAD_CAT_ID   = 66849
ELEMENT_SET_NO = 999
REV_AT_EPOCH   = 391
BSTAR          = -.34572E-4
MEAN_MOTION_DOT = -.2367E-4
MEAN_MOTION_DDOT = 0

CCSDS_OMM_VERS = 2.0
CREATION_DATE  = 
ORIGINATOR     = 

OBJECT_NAME    = STARLINK-36105
OBJECT_ID      = 2025-281C
CENTER_NAME    = EARTH
REF_FRAME      = TEME
TIME_SYSTEM    = UTC
MEAN_ELEMENT_THEORY = SGP/SGP4

EPOCH          = 2025-12-28T12:00:02.000160
MEAN_MOTION    = 15.50550993
ECCENTRICITY   = .0001158
INCLINATION    = 43.0006
RA_OF_ASC_NODE = 27.4868
ARG_OF_PERICENTER = 273.2428
MEAN_ANOMALY   = 149.2811

EPHEMERIS_TYPE = 0
CLASSIFICATION_TYPE = U
NORAD_CAT_ID   = 66850
ELEMENT_SET_NO = 999
REV_AT_EPOCH   = 391
BSTAR          = -.57807E-4
MEAN_MOTION_DOT = -.3727E-4
MEAN_MOTION_DDOT = 0

CCSDS_OMM_VERS = 2.0
CREATION_DATE  = 
ORIGINATOR     = 

OBJECT_NAME    = STARLINK-36094
OBJECT_ID      = 2025-281D
CENTER_NAME    = EARTH
REF_FRAME      = TEME
TIME_SYSTEM    = UTC
MEAN_ELEMENT_THEORY = SGP/SGP4

EPOCH          = 2025-12-28T12:00:02.000160
MEAN_MOTION    = 15.50542820
ECCENTRICITY   = .0001151
INCLINATION    = 43.0006
RA_OF_ASC_NODE = 27.4816
ARG_OF_PERICENTER = 274.8977
MEAN_ANOMALY   = 149.5408

EPHEMERIS_TYPE = 0
CLASSIFICATION_TYPE = U
NORAD_CAT_ID   = 66851
ELEMENT_SET_NO = 999
REV_AT_EPOCH   = 391
BSTAR          = .25939E-3
MEAN_MOTION_DOT = .14885E-3
MEAN_MOTION_DDOT = 0

CCSDS_OMM_VERS = 2.0
CREATION_DATE  = 
ORIGINATOR     = 

OBJECT_NAME    = STARLINK-35992
OBJECT_ID      = 2025-281E
CENTER_NAME    = EARTH
REF_FRAME      = TEME
TIME_SYSTEM    = UTC
MEAN_ELEMENT_THEORY = SGP/SGP4

EPOCH          = 2025-12-28T12:00:02.000160
MEAN_MOTION    = 15.50552022
ECCENTRICITY   = .0000459
INCLINATION    = 43.0006
RA_OF_ASC_NODE = 27.4780
ARG_OF_PERICENTER = 274.4621
MEAN_ANOMALY   = 151.8965

EPHEMERIS_TYPE = 0
CLASSIFICATION_TYPE = U
NORAD_CAT_ID   = 66852
ELEMENT_SET_NO = 999
REV_AT_EPOCH   = 391
BSTAR          = -.78224E-4
MEAN_MOTION_DOT = -.4922E-4
MEAN_MOTION_DDOT = 0

CCSDS_OMM_VERS = 2.0
CREATION_DATE  = 
ORIGINATOR     = 

OBJECT_NAME    = STARLINK-35986
OBJECT_ID      = 2025-281F
CENTER_NAME    = EARTH
REF_FRAME      = TEME
TIME_SYSTEM    = UTC
MEAN_ELEMENT_THEORY = SGP/SGP4

EPOCH          = 2025-12-28T12:00:02.000160
MEAN_MOTION    = 15.50551650
ECCENTRICITY   = .0000543
INCLINATION    = 43.0006
RA_OF_ASC_NODE = 27.4730
ARG_OF_PERICENTER = 277.9483
MEAN_ANOMALY   = 150.3245

EPHEMERIS_TYPE = 0
CLASSIFICATION_TYPE = U
NORAD_CAT_ID   = 66853
ELEMENT_SET_NO = 999
REV_AT_EPOCH   = 391
BSTAR          = -.46443E-4
MEAN_MOTION_DOT = -.3062E-4
MEAN_MOTION_DDOT = 0

CCSDS_OMM_VERS = 2.0
CREATION_DATE  = 
ORIGINATOR     = 

OBJECT_NAME    = STARLINK-36087
OBJECT_ID      = 2025-281G
CENTER_NAME    = EARTH
REF_FRAME      = TEME
TIME_SYSTEM    = UTC
MEAN_ELEMENT_THEORY = SGP/SGP4

EPOCH          = 2025-12-28T12:00:02.000160
MEAN_MOTION    = 15.50551051
ECCENTRICITY   = .0000499
INCLINATION    = 43.0006
RA_OF_ASC_NODE = 27.4674
ARG_OF_PERICENTER = 262.1418
MEAN_ANOMALY   = 168.0537

EPHEMERIS_TYPE = 0
CLASSIFICATION_TYPE = U
NORAD_CAT_ID   = 66854
ELEMENT_SET_NO = 999
REV_AT_EPOCH   = 391
BSTAR          = -.12875E-3
MEAN_MOTION_DOT = -.7878E-4
MEAN_MOTION_DDOT = 0

CCSDS_OMM_VERS = 2.0
CREATION_DATE  = 
ORIGINATOR     = 

OBJECT_NAME    = STARLINK-36090
OBJECT_ID      = 2025-281H
CENTER_NAME    = EARTH
REF_FRAME      = TEME
TIME_SYSTEM    = UTC
MEAN_ELEMENT_THEORY = SGP/SGP4

EPOCH          = 2025-12-28T12:00:02.000160
MEAN_MOTION    = 15.50528479
ECCENTRICITY   = .0000513
INCLINATION    = 43.0007
RA_OF_ASC_NODE = 27.4626
ARG_OF_PERICENTER = 348.3006
MEAN_ANOMALY   = 83.8397

EPHEMERIS_TYPE = 0
CLASSIFICATION_TYPE = U
NORAD_CAT_ID   = 66855
ELEMENT_SET_NO = 999
REV_AT_EPOCH   = 379
BSTAR          = .3568E-3
MEAN_MOTION_DOT = .20608E-3
MEAN_MOTION_DDOT = 0

CCSDS_OMM_VERS = 2.0
CREATION_DATE  = 
ORIGINATOR     = 

OBJECT_NAME    = STARLINK-36072
OBJECT_ID      = 2025-281J
CENTER_NAME    = EARTH
REF_FRAME      = TEME
TIME_SYSTEM    = UTC
MEAN_ELEMENT_THEORY = SGP/SGP4

EPOCH          = 2025-12-28T12:00:02.000160
MEAN_MOTION    = 15.50782068
ECCENTRICITY   = .0001577
INCLINATION    = 43.0005
RA_OF_ASC_NODE = 27.4583
ARG_OF_PERICENTER = 274.1694
MEAN_ANOMALY   = 159.7984

EPHEMERIS_TYPE = 0
CLASSIFICATION_TYPE = U
NORAD_CAT_ID   = 66856
ELEMENT_SET_NO = 999
REV_AT_EPOCH   = 391
BSTAR          = -.4412E-2
MEAN_MOTION_DOT = -.252827E-2
MEAN_MOTION_DDOT = 0

